ONEWEB-0228             
1 48780U 21045P   23268.55925138 -.00000465  00000+0 -12693-2 0  9997
2 48780  87.8930  97.4257 0001872  85.8165 274.3180 13.15548302113427
